Satellite: OKEAN-4
Catalog number: 23317
Epoch time:      13163.81467668
Element set:     243
Inclination:      082.5395 deg
RA of node:       053.8898 deg
Eccentricity:    0.0019951
Arg of perigee:   237.5737 deg
Mean anomaly:     190.9359 deg
Mean motion:   14.84487675 rev/day
Decay rate:       4.66e-06 rev/day^2
Epoch rev:             829
Checksum:              356

Satellite: NOAA-14
Catalog number: 23455
Epoch time:      13164.46392484
Element set:     346
Inclination:      098.8029 deg
RA of node:       248.9592 deg
Eccentricity:    0.0009392
Arg of perigee:   015.6703 deg
Mean anomaly:     049.3733 deg
Mean motion:   14.13910570 rev/day
Decay rate:       -7.8e-07 rev/day^2
Epoch rev:           95184
Checksum:              326

Satellite: NOAA-15
Catalog number: 25338
Epoch time:      13164.50661265
Element set:     765
Inclination:      098.7237 deg
RA of node:       154.7313 deg
Eccentricity:    0.0011694
Arg of perigee:   135.3752 deg
Mean anomaly:     333.6857 deg
Mean motion:   14.25229291 rev/day
Decay rate:        9.8e-07 rev/day^2
Epoch rev:           78432
Checksum:              322

Satellite: RESURS
Catalog number: 25394
Epoch time:      13164.50549755
Element set:     398
Inclination:      098.3608 deg
RA of node:       140.5209 deg
Eccentricity:    0.0000444
Arg of perigee:   198.7675 deg
Mean anomaly:     269.3722 deg
Mean motion:   14.24332096 rev/day
Decay rate:       -1.6e-07 rev/day^2
Epoch rev:           77583
Checksum:              321

Satellite: FENGYUN1
Catalog number: 25730
Epoch time:      13164.50211162
Element set:     894
Inclination:      098.8769 deg
RA of node:       124.0587 deg
Eccentricity:    0.0026991
Arg of perigee:   058.8699 deg
Mean anomaly:     065.0661 deg
Mean motion:   14.10541159 rev/day
Decay rate:       4.16e-06 rev/day^2
Epoch rev:           72552
Checksum:              314

Satellite: OKEAN-0
Catalog number: 25860
Epoch time:      13164.78785773
Element set:     970
Inclination:      097.9893 deg
RA of node:       127.2826 deg
Eccentricity:    0.0001967
Arg of perigee:   121.8576 deg
Mean anomaly:     299.3538 deg
Mean motion:   14.74613811 rev/day
Decay rate:       2.22e-06 rev/day^2
Epoch rev:           74785
Checksum:              352

Satellite: NOAA-16
Catalog number: 26536
Epoch time:      13164.45419113
Element set:     245
Inclination:      099.0432 deg
RA of node:       217.1834 deg
Eccentricity:    0.0011474
Arg of perigee:   143.2335 deg
Mean anomaly:     334.8903 deg
Mean motion:   14.12885345 rev/day
Decay rate:       -1.2e-07 rev/day^2
Epoch rev:           65604
Checksum:              281

Satellite: NOAA-17
Catalog number: 27453
Epoch time:      13164.50317480
Element set:     162
Inclination:      098.3122 deg
RA of node:       178.7800 deg
Eccentricity:    0.0012282
Arg of perigee:   171.2756 deg
Mean anomaly:     336.9251 deg
Mean motion:   14.24595887 rev/day
Decay rate:        2.4e-07 rev/day^2
Epoch rev:           57019
Checksum:              302

Satellite: NOAA-18
Catalog number: 28654
Epoch time:      13164.47923865
Element set:     649
Inclination:      099.0986 deg
RA of node:       132.6423 deg
Eccentricity:    0.0013759
Arg of perigee:   215.2065 deg
Mean anomaly:     291.8325 deg
Mean motion:   14.11825218 rev/day
Decay rate:       2.16e-06 rev/day^2
Epoch rev:           41553
Checksum:              320

Satellite: NOAA-19
Catalog number: 33591
Epoch time:      13164.48992194
Element set:     832
Inclination:      098.9027 deg
RA of node:       106.5836 deg
Eccentricity:    0.0015271
Arg of perigee:   081.8335 deg
Mean anomaly:     026.7436 deg
Mean motion:   14.11513115 rev/day
Decay rate:        6.4e-07 rev/day^2
Epoch rev:           22397
Checksum:              308

/EX
SB KEPS @ AMSAT  $ORB13164.M
Orbital Elements  13164.MISC

HR AMSAT ORBITAL ELEMENTS FOR MANNED AND MISCELLANEOUS SATELLITES
FROM WA5QGD FORT WORTH,TX June 13, 2013
BID: ORB13164.M
TO ALL RADIO AMATEURS BT

Satellite: HUBBLE
Catalog number: 20580
Epoch time:      13163.75160075
Element set:     260
Inclination:      028.4704 deg
RA of node:       301.9100 deg
Eccentricity:    0.0003138
Arg of perigee:   308.2990 deg
Mean anomaly:     144.9090 deg
Mean motion:   15.03683637 rev/day
Decay rate:      1.016e-05 rev/day^2
Epoch rev:            6902
Checksum:              255

Satellite: ISS
Catalog number: 25544
Epoch time:      13164.89575256
Element set:     998
Inclination:      051.6483 deg
RA of node:       124.6645 deg
Eccentricity:    0.0010904
Arg of perigee:   067.6023 deg
Mean anomaly:     341.0605 deg
Mean motion:   15.50774041 rev/day
Decay rate:      4.423e-05 rev/day^2
Epoch rev:           83419
Checksum:              300

Satellite: CO-58
Catalog number: 28895
Epoch time:      13164.58915405
Element set:     499
Inclination:      097.8711 deg
RA of node:       020.0885 deg
Eccentricity:    0.0019108
Arg of perigee:   094.2044 deg
Mean anomaly:     266.1342 deg
Mean motion:   14.61127123 rev/day
Decay rate:       3.05e-06 rev/day^2
Epoch rev:           40641
Checksum:              302

Satellite: FALCON
Catalog number: 30776
Epoch time:      13164.58231953
Element set:     634
Inclination:      035.4297 deg
RA of node:       224.3467 deg
Eccentricity:    0.0002066
Arg of perigee:   260.8760 deg
Mean anomaly:     217.3992 deg
Mean motion:   15.10676290 rev/day
Decay rate:      2.293e-05 rev/day^2
Epoch rev:           34487
Checksum:              308

Satellite: MAST
Catalog number: 31126
Epoch time:      13164.57902088
Element set:     778
Inclination:      097.8807 deg
RA of node:       160.7059 deg
Eccentricity:    0.0094403
Arg of perigee:   064.6068 deg
Mean anomaly:     049.2387 deg
Mean motion:   14.54580516 rev/day
Decay rate:       3.12e-06 rev/day^2
Epoch rev:           32679
Checksum:              320

Satellite: CAPE1
Catalog number: 31130
Epoch time:      13164.67327195
Element set:     786
Inclination:      097.8976 deg
RA of node:       157.1458 deg
Eccentricity:    0.0102069
Arg of perigee:   079.6735 deg
Mean anomaly:     281.5950 deg
Mean motion:   14.53494705 rev/day
Decay rate:       4.91e-06 rev/day^2
Epoch rev:           32626
Checksum:              331

Satellite: COMPASS
Catalog number: 32787
Epoch time:      13164.16309217
Element set:     648
Inclination:      097.7530 deg
RA of node:       222.8310 deg
Eccentricity:    0.0013242
Arg of perigee:   319.8813 deg
Mean anomaly:     040.1423 deg
Mean motion:   14.85521508 rev/day
Decay rate:       7.68e-06 rev/day^2
Epoch rev:           27736
Checksum:              291

