OKEAN-4
1 23317U 94066A   13163.81467668  .00000466  00000-0  52331-4 0  2437
2 23317 082.5395 053.8898 0019951 237.5737 190.9359 14.84487675  8299
NOAA-14
1 23455U 94089A   13164.46392484 -.00000078  00000-0 -18011-4 0  3462
2 23455 098.8029 248.9592 0009392 015.6703 049.3733 14.13910570951848
NOAA-15
1 25338U 98030A   13164.50661265  .00000098  00000-0  60427-4 0  7658
2 25338 098.7237 154.7313 0011694 135.3752 333.6857 14.25229291784326
RESURS
1 25394U 98043A   13164.50549755 -.00000016  00000-0  10776-4 0  3988
2 25394 098.3608 140.5209 0000444 198.7675 269.3722 14.24332096775830
FENGYUN1
1 25730U 99025A   13164.50211162  .00000416  00000-0  25704-3 0  8941
2 25730 098.8769 124.0587 0026991 058.8699 065.0661 14.10541159725521
OKEAN-0
1 25860U 99039A   13164.78785773  .00000222  00000-0  40883-4 0  9700
2 25860 097.9893 127.2826 0001967 121.8576 299.3538 14.74613811747855
NOAA-16
1 26536U 00055A   13164.45419113 -.00000012  00000-0  18262-4 0  2456
2 26536 099.0432 217.1834 0011474 143.2335 334.8903 14.12885345656047
NOAA-17
1 27453U 02032A   13164.50317480  .00000024  00000-0  27911-4 0  1623
2 27453 098.3122 178.7800 0012282 171.2756 336.9251 14.24595887570197
NOAA-18
1 28654U 05018A   13164.47923865  .00000216  00000-0  14361-3 0  6497
2 28654 099.0986 132.6423 0013759 215.2065 291.8325 14.11825218415536
NOAA-19
1 33591U 09005A   13164.48992194  .00000064  00000-0  59318-4 0  8322
2 33591 098.9027 106.5836 0015271 081.8335 026.7436 14.11513115223975
HUBBLE
1 20580U 90037B   13163.75160075  .00001016  00000-0  60157-4 0  2601
2 20580 028.4704 301.9100 0003138 308.2990 144.9090 15.03683637 69028
ISS
1 25544U 98067A   13164.89575256  .00004423  00000-0  83140-4 0  9984
2 25544 051.6483 124.6645 0010904 067.6023 341.0605 15.50774041834193
CO-58
1 28895U 05043F   13164.58915405  .00000305  00000-0  70735-4 0  4995
2 28895 097.8711 020.0885 0019108 094.2044 266.1342 14.61127123406419
FALCON
1 30776U 07006E   13164.58231953  .00002293  00000-0  13820-3 0  6346
2 30776 035.4297 224.3467 0002066 260.8760 217.3992 15.10676290344872
MAST
1 31126U 07012K   13164.57902088  .00000312  00000-0  78912-4 0  7789
2 31126 097.8807 160.7059 0094403 064.6068 049.2387 14.54580516326791
CAPE1
1 31130U 07012P   13164.67327195  .00000491  00000-0  12007-3 0  7864
2 31130 097.8976 157.1458 0102069 079.6735 281.5950 14.53494705326263
COMPASS
1 32787U 08021E   13164.16309217  .00000768  00000-0  94953-4 0  6488
2 32787 097.7530 222.8310 0013242 319.8813 040.1423 14.85521508277361
